COSMOS 2426 (717)       
1 29671U 06062B   19221.52528434  .00000008  00000-0  10000-3 0  9999
2 29671  65.0943 278.4895 0020935 179.3443 279.8242  2.12961441 98233
COSMOS 2433 (720)       
1 32275U 07052A   19220.47965916 -.00000033  00000-0  10000-3 0  9995
2 32275  65.8734  39.3914 0001226 203.0456 154.5417  2.13104418 91713
COSMOS 2432 (719)       
1 32276U 07052B   19221.01482556 -.00000032  00000-0  10000-3 0  9990
2 32276  65.8842  39.4582 0009306 342.5047  16.6396  2.13103812 91720
COSMOS 2434 (721)       
1 32393U 07065A   19220.30709286  .00000001  00000-0  00000-0 0  9998
2 32393  64.6996 277.2041 0003162 141.1370 331.4963  2.13103078 90423
COSMOS 2436 (723)       
1 32395U 07065C   19220.64548000  .00000003  00000-0  10000-3 0  9998
2 32395  64.7094 277.2482 0014570 354.5855  70.1924  2.13104467 90367
COSMOS 2456 (730)       
1 36111U 09070A   19220.66703493 -.00000004  00000-0  00000-0 0  9995
2 36111  64.2052 156.8303 0005633 308.3608 253.5559  2.13103084 75091
COSMOS 2457 (733)       
1 36112U 09070B   19220.61846275 -.00000003  00000-0  00000+0 0  9995
2 36112  64.1872 156.7321 0004949 184.3674 105.0939  2.13101602 75091
COSMOS 2459 (731)       
1 36400U 10007A   19221.32506142 -.00000033  00000-0  10000-3 0  9990
2 36400  65.7759  38.3743 0025234 355.7885 145.9402  2.13102189 73461
COSMOS 2461 (735)       
1 36401U 10007B   19220.83364949 -.00000033  00000-0  10000-3 0  9993
2 36401  65.7727  38.3620 0008958  73.4495 321.8272  2.13102178 73453
COSMOS 2460 (732)       
1 36402U 10007C   19221.24478059 -.00000033  00000-0  10000-3 0  9998
2 36402  65.7643  38.3114 0002333 100.5690 289.8549  2.13101491 73467
COSMOS 2464 (736)       
1 37139U 10041C   19220.67946133  .00000004  00000-0  00000+0 0  9995
2 37139  64.2996 276.7864 0023406   9.1308 255.0722  2.13100734 69512
COSMOS 2474 (742)       
1 37829U 11055A   19220.71376686 -.00000003  00000-0  00000+0 0  9992
2 37829  64.5260 157.7214 0010295 251.5118 202.4437  2.13101951 61092
COSMOS 2476 (744)       
1 37867U 11064A   19221.12668759 -.00000009  00000-0  00000+0 0  9991
2 37867  64.5053 157.7590 0020284 242.6411 214.2541  2.13102008 60457
COSMOS 2477 (745)       
1 37868U 11064B   19221.15593738 -.00000009  00000-0  00000+0 0  9999
2 37868  64.5152 157.8109 0017871 244.4603  53.5261  2.13101868 60407
COSMOS 2475 (743)       
1 37869U 11064C   19220.61346615 -.00000001  00000-0  00000+0 0  9992
2 37869  64.5214 157.8282 0022312 265.1895 293.7639  2.13102216 60403
COSMOS 2485 (747)       
1 39155U 13019A   19220.57792973  .00000000  00000-0  00000+0 0  9999
2 39155  64.6745 157.9785 0020675 238.2335 202.3785  2.13102065 48914
COSMOS 2492 (754)       
1 39620U 14012A   19221.38190193 -.00000033  00000-0  10000-3 0  9998
2 39620  65.6464  38.1331 0012275 334.5132  37.9664  2.13103328 41889
COSMOS 2500 (755)       
1 40001U 14032A   19220.64069525 -.00000034  00000-0  00000+0 0  9993
2 40001  65.5943  38.0975 0006010 184.8806 200.2910  2.13102690 40083
COSMOS 2501 (702K)      
1 40315U 14075A   19221.28433566  .00000007  00000-0  00000+0 0  9998
2 40315  64.0193 277.8271 0017494 208.5597 107.9127  2.13098746 36492
COSMOS 2514 (751)       
1 41330U 16008A   19221.14883019 -.00000034  00000-0  00000+0 0  9992
2 41330  65.3922  38.0294 0008907 202.3079  34.4707  2.13103139 27257
COSMOS 2516 (753)       
1 41554U 16032A   19221.45910391  .00000009  00000-0  00000+0 0  9996
2 41554  64.2417 277.8030 0014343 218.1939 147.1880  2.13101780 24873
COSMOS 2522 (752)       
1 42939U 17055A   19221.02046528  .00000005  00000-0  00000+0 0  9991
2 42939  64.4752 277.9073 0009083 241.0130  14.3554  2.13101946 14614
COSMOS 2527 (756)       
1 43508U 18053A   19221.11268846 -.00000009  00000-0  00000+0 0  9997
2 43508  64.8391 157.7421 0008426 241.4714 115.9734  2.13102702  8908
COSMOS 2529 (757)       
1 43687U 18086A   19221.55883185  .00000010  00000-0  00000+0 0  9999
2 43687  64.6859 277.9226 0011151 263.8836   0.2064  2.13102095  5930
COSMOS 2534 (758)       
1 44299U 19030A   19220.88949819  .00000004  00000-0  00000+0 0  9994
2 44299  64.7564 277.7351 0013780 282.6459 323.1642  2.13102001  1562
